NORAD_CAT_ID,OBJECT_NAME,OBJECT_TYPE,EPOCH,MEAN_MOTION,ECCENTRICITY,INCLINATION,RA_OF_ASC_NODE,ARG_OF_PERICENTER,MEAN_ANOMALY,BSTAR,MEAN_MOTION_DOT,MEAN_MOTION_DDOT,TLE_LINE0,TLE_LINE1,TLE_LINE2,SEMIMAJOR_AXIS,PERIOD,APOGEE,PERIGEE,DECAYED
55663.0,STARLINK-5473,PAYLOAD,2024-08-02 15:57:30,14.98337241,0.0003439,69.9994,196.9727,272.0182,88.0583,-7.2313e-05,-9.56e-06,0.0,0 STARLINK-5473,1 55663U 23021AM  24215.66493474 -.00000956  00000-0 -72313-4 0  9992,2 55663  69.9994 196.9727 0003439 272.0182  88.0583 14.98337241 81806,6950.17,96.107,574.426,569.645,0.0
55663.0,STARLINK-5473,PAYLOAD,2024-08-03 04:46:35,14.98329169,0.0003424,69.9993,195.6274,269.6779,90.3987,-5.9016e-06,-1.63e-06,0.0,0 STARLINK-5473,1 55663U 23021AM  24216.19901833 -.00000163  00000-0 -59016-5 0  9990,2 55663  69.9993 195.6274 0003424 269.6779  90.3987 14.98329169 81585,6950.195,96.107,574.44,569.681,0.0
55663.0,STARLINK-5473,PAYLOAD,2024-08-03 07:58:51,14.98330147,0.0003415,69.9993,195.2907,270.0432,90.0335,5.1133e-06,-3.2e-07,0.0,0 STARLINK-5473,1 55663U 23021AM  24216.33253742 -.00000032  00000-0  51133-5 0  9991,2 55663  69.9993 195.2907 0003415 270.0432  90.0335 14.98330147 81904,6950.192,96.107,574.431,569.684,0.0
55663.0,STARLINK-5473,PAYLOAD,2024-08-03 22:24:03,14.98329882,0.0003343,69.9995,193.7762,268.2242,91.8535,-2.6092e-05,-4.04e-06,0.0,0 STARLINK-5473,1 55663U 23021AM  24216.93337821 -.00000404  00000-0 -26092-4 0  9997,2 55663  69.9995 193.7762 0003343 268.2242  91.8535 14.98329882 81990,6950.193,96.107,574.382,569.735,0.0
55663.0,STARLINK-5473,PAYLOAD,2024-08-04 04:48:35,14.98331823,0.0003424,69.9992,193.1024,269.7096,90.3671,8.3882e-06,7e-08,0.0,0 STARLINK-5473,1 55663U 23021AM  24217.20041592  .00000007  00000-0  83882-5 0  9993,2 55663  69.9992 193.1024 0003424 269.7096  90.3671 14.98331823 81730,6950.187,96.107,574.432,569.673,0.0
55663.0,STARLINK-5473,PAYLOAD,2024-08-04 08:00:51,14.98333088,0.0003407,69.9993,192.7658,269.8111,90.2658,2.3895e-05,1.92e-06,0.0,0 STARLINK-5473,1 55663U 23021AM  24217.33393458  .00000192  00000-0  23895-4 0  9990,2 55663  69.9993 192.7658 0003407 269.8111  90.2658 14.98333088 82054,6950.183,96.107,574.416,569.68,0.0
55663.0,STARLINK-5473,PAYLOAD,2024-08-04 22:26:04,14.98331402,0.0003486,69.9989,191.2504,270.0989,89.9771,7.928e-05,8.53e-06,0.0,0 STARLINK-5473,1 55663U 23021AM  24217.93477344  .00000853  00000-0  79280-4 0  9996,2 55663  69.9989 191.2504 0003486 270.0989  89.9771 14.98331402 82146,6950.189,96.107,574.476,569.631,0.0
55663.0,STARLINK-5473,PAYLOAD,2024-08-05 04:50:36,14.98335745,0.0003467,69.9989,190.5773,270.2537,89.8224,0.00010675,1.181e-05,0.0,0 STARLINK-5473,1 55663U 23021AM  24218.20180987  .00001181  00000-0  10675-3 0  9998,2 55663  69.9989 190.5773 0003467 270.2537  89.8224 14.98335745 81882,6950.175,96.107,574.45,569.63,0.0
55663.0,STARLINK-5473,PAYLOAD,2024-08-05 16:03:33,14.98309188,0.0003499,69.9984,189.3975,269.4851,90.5907,0.00041856,4.902e-05,0.0,0 STARLINK-5473,1 55663U 23021AM  24218.66913962  .00004902  00000-0  41856-3 0  9994,2 55663  69.9984 189.3975 0003499 269.4851  90.5907 14.98309188 81958,6950.257,96.108,574.554,569.69,0.0
55663.0,STARLINK-5473,PAYLOAD,2024-08-05 22:28:05,14.98326384,0.0002673,69.9996,188.7278,282.0134,78.0725,2.4884e-05,2.04e-06,0.0,0 STARLINK-5473,1 55663U 23021AM  24218.93618014  .00000204  00000-0  24884-4 0  9998,2 55663  69.9996 188.7278 0002673 282.0134  78.0725 14.98326384 82292,6950.204,96.107,573.927,570.211,0.0
55663.0,STARLINK-5473,PAYLOAD,2024-08-06 08:04:55,14.98318776,0.0003303,69.9993,187.7166,271.0851,88.9929,-8.8392e-05,-1.147e-05,0.0,0 STARLINK-5473,1 55663U 23021AM  24219.33674858 -.00001147  00000-0 -88392-4 0  9994,2 55663  69.9993 187.7166 0003303 271.0851  88.9929 14.98318776 82358,6950.228,96.108,574.388,569.797,0.0
55663.0,STARLINK-5473,PAYLOAD,2024-08-07 03:18:31,14.98330919,0.0003399,69.9991,185.695,275.6439,84.4332,5.196e-06,-3.1e-07,0.0,0 STARLINK-5473,1 55663U 23021AM  24220.13786024 -.00000031  00000-0  51960-5 0  9995,2 55663  69.9991 185.6950 0003399 275.6439  84.4332 14.98330919 82173,6950.19,96.107,574.417,569.693,0.0
55663.0,STARLINK-5473,PAYLOAD,2024-08-07 06:30:46,14.98333521,0.0002959,70.0001,185.3601,264.0178,96.0644,4.4609e-05,4.39e-06,0.0,0 STARLINK-5473,1 55663U 23021AM  24220.27137707  .00000439  00000-0  44609-4 0  9990,2 55663  70.0001 185.3601 0002959 264.0178  96.0644 14.98333521 82493,6950.182,96.107,574.104,569.99,0.0
55663.0,STARLINK-5473,PAYLOAD,2024-08-08 08:08:55,14.98337268,0.0003325,69.9995,182.6672,272.6857,87.3921,0.00028745,3.339e-05,0.0,0 STARLINK-5473,1 55663U 23021AM  24221.33952801  .00003339  00000-0  28745-3 0  9992,2 55663  69.9995 182.6672 0003325 272.6857  87.3921 14.98337268 82658,6950.17,96.107,574.346,569.724,0.0
55663.0,STARLINK-5473,PAYLOAD,2024-08-08 22:34:08,14.98333965,0.0002892,70.0017,181.1523,258.1733,101.9101,0.00010607,1.173e-05,0.0,0 STARLINK-5473,1 55663U 23021AM  24221.94037257  .00001173  00000-0  10607-3 0  9990,2 55663  70.0017 181.1523 0002892 258.1733 101.9101 14.98333965 82748,6950.181,96.107,574.056,570.036,0.0
55663.0,STARLINK-5473,PAYLOAD,2024-08-09 04:58:40,14.98335436,0.0003036,70.0001,180.4788,260.7423,99.3393,4.111e-05,3.98e-06,0.0,0 STARLINK-5473,1 55663U 23021AM  24222.20741273  .00000398  00000-0  41110-4 0  9992,2 55663  70.0001 180.4788 0003036 260.7423  99.3393 14.98335436 82481,6950.176,96.107,574.151,569.931,0.0
55663.0,STARLINK-5473,PAYLOAD,2024-08-09 06:34:48,14.98336187,0.0002916,70.0005,180.3108,260.138,99.945,4.1187e-05,3.99e-06,0.0,0 STARLINK-5473,1 55663U 23021AM  24222.27417183  .00000399  00000-0  41187-4 0  9994,2 55663  70.0005 180.3108 0002916 260.1380  99.9450 14.98336187 82790,6950.174,96.107,574.065,570.012,0.0
55663.0,STARLINK-5473,PAYLOAD,2024-08-09 21:00:02,14.98324542,0.0003151,70.0002,178.7952,269.7753,90.3045,-0.00022874,-2.821e-05,0.0,0 STARLINK-5473,1 55663U 23021AM  24222.87502553 -.00002821  00000-0 -22874-3 0  9991,2 55663  70.0002 178.7952 0003151 269.7753  90.3045 14.98324542 82580,6950.21,96.107,574.265,569.885,0.0
55663.0,STARLINK-5473,PAYLOAD,2024-08-10 05:00:42,14.98330195,0.0002855,70.0003,177.9538,264.2785,95.8048,-0.00014943,-1.875e-05,0.0,0 STARLINK-5473,1 55663U 23021AM  24223.20881990 -.00001875  00000-0 -14943-3 0  9990,2 55663  70.0003 177.9538 0002855 264.2785  95.8048 14.98330195 82637,6950.192,96.107,574.042,570.073,0.0
55663.0,STARLINK-5473,PAYLOAD,2024-08-10 22:38:10,14.98331608,0.0003108,69.9998,176.1023,265.4926,94.5878,3.6818e-05,3.46e-06,0.0,0 STARLINK-5473,1 55663U 23021AM  24223.94317453  .00000346  00000-0  36818-4 0  9995,2 55663  69.9998 176.1023 0003108 265.4926  94.5878 14.98331608 83042,6950.188,96.107,574.213,569.893,0.0
55663.0,STARLINK-5473,PAYLOAD,2024-08-11 03:26:34,14.98337662,0.0003218,69.9999,175.5985,266.1215,93.9576,0.00011883,1.325e-05,0.0,0 STARLINK-5473,1 55663U 23021AM  24224.14344919  .00001325  00000-0  11883-3 0  9997,2 55663  69.9999 175.5985 0003218 266.1215  93.9576 14.98337662 82777,6950.169,96.107,574.271,569.798,0.0
55663.0,STARLINK-5473,PAYLOAD,2024-08-11 06:38:49,14.98344429,0.0003094,70.0001,175.262,264.6898,95.3908,0.0001903,2.179e-05,0.0,0 STARLINK-5473,1 55663U 23021AM  24224.27696413  .00002179  00000-0  19030-3 0  9990,2 55663  70.0001 175.2620 0003094 264.6898  95.3908 14.98344429 82795,6950.148,96.106,574.164,569.863,0.0
55663.0,STARLINK-5473,PAYLOAD,2024-08-11 14:39:30,14.98341003,0.0003026,70.0004,174.4168,269.3869,90.6944,9.0907e-05,9.92e-06,0.0,0 STARLINK-5473,1 55663U 23021AM  24224.61076692  .00000992  00000-0  90907-4 0  9993,2 55663  70.0004 174.4168 0003026 269.3869  90.6944 14.98341003 82840,6950.159,96.106,574.127,569.921,0.0
55663.0,STARLINK-5473,PAYLOAD,2024-08-11 22:40:11,14.98327095,0.0002982,70.001,173.5758,267.8684,92.2134,0.00026465,3.066e-05,0.0,0 STARLINK-5473,1 55663U 23021AM  24224.94457310  .00003066  00000-0  26465-3 0  9991,2 55663  70.0010 173.5758 0002982 267.8684  92.2134 14.98327095 83193,6950.202,96.107,574.139,569.994,0.0
55663.0,STARLINK-5473,PAYLOAD,2024-08-12 06:40:50,14.98341671,0.0002686,70.001,172.7384,262.282,97.8034,0.00028657,3.329e-05,0.0,0 STARLINK-5473,1 55663U 23021AM  24225.27836121  .00003329  00000-0  28657-3 0  9996,2 55663  70.0010 172.7384 0002686 262.2820  97.8034 14.98341671 83243,6950.157,96.106,573.889,570.155,0.0
55663.0,STARLINK-5473,PAYLOAD,2024-08-12 19:29:54,14.98352627,0.0002872,70.0011,171.3921,266.5708,93.5123,0.00024337,2.814e-05,0.0,0 STARLINK-5473,1 55663U 23021AM  24225.81243139  .00002814  00000-0  24337-3 0  9996,2 55663  70.0011 171.3921 0002872 266.5708  93.5123 14.98352627 83026,6950.123,96.106,573.984,569.992,0.0
55663.0,STARLINK-5473,PAYLOAD,2024-08-12 22:42:10,14.98354278,0.000288,70.001,171.0552,266.8436,93.2393,0.00025723,2.979e-05,0.0,0 STARLINK-5473,1 55663U 23021AM  24225.94594923  .00002979  00000-0  25723-3 0  9992,2 55663  70.0010 171.0552 0002880 266.8436  93.2393 14.98354278 83347,6950.118,96.105,573.984,569.981,0.0
55663.0,STARLINK-5473,PAYLOAD,2024-08-13 05:06:45,14.98285645,0.000286,70.0011,170.3816,267.0003,93.0828,-0.0010019,-0.00012013,0.0,0 STARLINK-5473,1 55663U 23021AM  24226.21303201 -.00012013  00000-0 -10019-2 0  9993,2 55663  70.0011 170.3816 0002860 267.0003  93.0828 14.98285645 83087,6950.33,96.11,574.183,570.207,0.0
55663.0,STARLINK-5473,PAYLOAD,2024-08-13 13:07:26,14.9829312,0.0003185,70.0002,169.5388,269.8132,90.2662,-0.00083789,-0.00010067,0.0,0 STARLINK-5473,1 55663U 23021AM  24226.54683397 -.00010067  00000-0 -83789-3 0  9998,2 55663  70.0002 169.5388 0003185 269.8132  90.2662 14.98293120 83133,6950.307,96.109,574.386,569.958,0.0
55663.0,STARLINK-5473,PAYLOAD,2024-08-13 22:44:15,14.98288547,0.0003284,69.9998,168.5274,274.7831,85.2953,-0.00052965,-6.4e-05,0.0,0 STARLINK-5473,1 55663U 23021AM  24226.94740504 -.00006400  00000-0 -52965-3 0  9994,2 55663  69.9998 168.5274 0003284 274.7831  85.2953 14.98288547 83491,6950.321,96.11,574.469,569.904,0.0
